TEVEL2-8                
1 63239U 25052AF  26068.66815442  .00019130  00000+0  69304-3 0  9993
2 63239  97.4055 324.2923 0008031 124.9191 235.2804 15.28392908 54807
STARLINK-36425          
1 67467U 26008Y   26068.39173285  .00027535  00000+0  10060-2 0  9996
2 67467  42.9947 207.1682 0001864 144.4244 215.6732 15.27592602  9526
